[{"OBJECT_NAME":"STARLINK-30340","OBJECT_ID":"2023-144W","EPOCH":"2026-03-09T23:09:27.120672","MEAN_MOTION":15.26754223,"ECCENTRICITY":0.00019163,"INCLINATION":43.003,"RA_OF_ASC_NODE":283.2788,"ARG_OF_PERICENTER":285.74,"MEAN_ANOMALY":74.324,"EPHEMERIS_TYPE":0,"CLASSIFICATION_TYPE":"U","NORAD_CAT_ID":57884,"ELEMENT_SET_NO":999,"REV_AT_EPOCH":13768,"BSTAR":0.00014612406,"MEAN_MOTION_DOT":3.663e-5,"MEAN_MOTION_DDOT":0},{"OBJECT_NAME":"FLOCK 4G-4","OBJECT_ID":"2025-009BC","EPOCH":"2026-03-09T18:04:48.344448","MEAN_MOTION":15.26803327,"ECCENTRICITY":0.00015979,"INCLINATION":97.3994,"RA_OF_ASC_NODE":150.7963,"ARG_OF_PERICENTER":343.4316,"MEAN_ANOMALY":16.687,"EPHEMERIS_TYPE":0,"CLASSIFICATION_TYPE":"U","NORAD_CAT_ID":62659,"ELEMENT_SET_NO":999,"REV_AT_EPOCH":12132,"BSTAR":0.00045294179,"MEAN_MOTION_DOT":0.00011866,"MEAN_MOTION_DDOT":0}]
